start=new Date('2022-11-13T00:00:00.000Z').valueOf();
sats=[{"MEAN_MOTION":"15.08838896","EPHEMERIS_TYPE":"0","REV_AT_EPOCH":"3997","CLASSIFICATION_TYPE":"U","ARG_OF_PERICENTER":"33.1751","RA_OF_ASC_NODE":"55.1470","EPOCH":"2022-11-12T12:59:50.753760","DECAY_DATE":null,"ECCENTRICITY":"0.00020220","SITE":"AFETR","LAUNCH_DATE":"2022-03-03","GP_ID":"217533141","TLE_LINE2":"2 51860  53.2187  55.1470 0002022  33.1751 326.9367 15.08838896 39976","MEAN_ANOMALY":"326.9367","RCS_SIZE":"LARGE","MEAN_MOTION_DOT":"0.00002761","MEAN_MOTION_DDOT":"0.0000000000000","COUNTRY_CODE":"US","CENTER_NAME":"EARTH","FILE":"3652392","OBJECT_ID":"2022-022J","OBJECT_NAME":"STARLINK-3559","INCLINATION":"53.2187","OBJECT_TYPE":"PAYLOAD","ELEMENT_SET_NO":"999","BSTAR":"0.00019150000000","PERIOD":"95.438","SEMIMAJOR_AXIS":"6917.884","MEAN_ELEMENT_THEORY":"SGP4","REF_FRAME":"TEME","TIME_SYSTEM":"UTC","APOAPSIS":"541.148","NORAD_CAT_ID":"51860","PERIAPSIS":"538.350","TLE_LINE1":"1 51860U 22022J   22316.54155965  .00002761  00000-0  19150-3 0  9997"},{"ELEMENT_SET_NO":"999","OBJECT_TYPE":"PAYLOAD","BSTAR":"0.00018065000000","INCLINATION":"53.2174","MEAN_MOTION_DOT":"0.00002588","MEAN_MOTION_DDOT":"0.0000000000000","CENTER_NAME":"EARTH","COUNTRY_CODE":"US","FILE":"3652635","OBJECT_ID":"2022-022K","OBJECT_NAME":"STARLINK-3562","TIME_SYSTEM":"UTC","REF_FRAME":"TEME","MEAN_ELEMENT_THEORY":"SGP4","APOAPSIS":"541.166","PERIAPSIS":"538.308","NORAD_CAT_ID":"51861","TLE_LINE1":"1 51861U 22022K   22316.79179185  .00002588  00000-0  18065-3 0  9996","SEMIMAJOR_AXIS":"6917.872","PERIOD":"95.437","ARG_OF_PERICENTER":"39.8404","CLASSIFICATION_TYPE":"U","RA_OF_ASC_NODE":"54.0225","DECAY_DATE":null,"EPOCH":"2022-11-12T19:00:10.815840","MEAN_MOTION":"15.08842687","REV_AT_EPOCH":"3992","EPHEMERIS_TYPE":"0","TLE_LINE2":"2 51861  53.2174  54.0225 0002066  39.8404 320.2739 15.08842687 39923","MEAN_ANOMALY":"320.2739","RCS_SIZE":"LARGE","SITE":"AFETR","ECCENTRICITY":"0.00020660","GP_ID":"217587466","LAUNCH_DATE":"2022-03-03"},{"MEAN_MOTION":"15.08830125","EPHEMERIS_TYPE":"0","REV_AT_EPOCH":"4004","CLASSIFICATION_TYPE":"U","ARG_OF_PERICENTER":"75.9633","RA_OF_ASC_NODE":"54.5848","EPOCH":"2022-11-12T16:05:18.895776","DECAY_DATE":null,"ECCENTRICITY":"0.00018510","SITE":"AFETR","GP_ID":"217587716","LAUNCH_DATE":"2022-03-03","TLE_LINE2":"2 51862  53.2183  54.5848 0001851  75.9633 284.1564 15.08830125 40049","MEAN_ANOMALY":"284.1564","RCS_SIZE":"LARGE","MEAN_MOTION_DOT":"0.00005845","MEAN_MOTION_DDOT":"0.0000000000000","COUNTRY_CODE":"US","CENTER_NAME":"EARTH","FILE":"3652635","OBJECT_NAME":"STARLINK-3508","OBJECT_ID":"2022-022L","INCLINATION":"53.2183","BSTAR":"0.00038515000000","OBJECT_TYPE":"PAYLOAD","ELEMENT_SET_NO":"999","PERIOD":"95.438","SEMIMAJOR_AXIS":"6917.911","REF_FRAME":"TEME","MEAN_ELEMENT_THEORY":"SGP4","TIME_SYSTEM":"UTC","APOAPSIS":"541.056","NORAD_CAT_ID":"51862","PERIAPSIS":"538.495","TLE_LINE1":"1 51862U 22022L   22316.67035759  .00005845  00000-0  38515-3 0  9993"},{"OBJECT_TYPE":"PAYLOAD","ELEMENT_SET_NO":"999","BSTAR":"0.00022835000000","INCLINATION":"53.2192","MEAN_MOTION_DOT":"0.00003348","MEAN_MOTION_DDOT":"0.0000000000000","CENTER_NAME":"EARTH","COUNTRY_CODE":"US","FILE":"3652635","OBJECT_NAME":"STARLINK-3555","OBJECT_ID":"2022-022M","TIME_SYSTEM":"UTC","REF_FRAME":"TEME","MEAN_ELEMENT_THEORY":"SGP4","APOAPSIS":"541.048","PERIAPSIS":"538.415","NORAD_CAT_ID":"51863","TLE_LINE1":"1 51863U 22022M   22316.65195605  .00003348  00000-0  22835-3 0  9993","SEMIMAJOR_AXIS":"6917.866","PERIOD":"95.437","ARG_OF_PERICENTER":"42.0513","CLASSIFICATION_TYPE":"U","RA_OF_ASC_NODE":"54.6654","DECAY_DATE":null,"EPOCH":"2022-11-12T15:38:49.002720","MEAN_MOTION":"15.08844600","REV_AT_EPOCH":"3998","EPHEMERIS_TYPE":"0","TLE_LINE2":"2 51863  53.2192  54.6654 0001903  42.0513 318.0625 15.08844600 39985","MEAN_ANOMALY":"318.0625","RCS_SIZE":"LARGE","SITE":"AFETR","ECCENTRICITY":"0.00019030","LAUNCH_DATE":"2022-03-03","GP_ID":"217588468"},{"INCLINATION":"53.2179","OBJECT_TYPE":"PAYLOAD","ELEMENT_SET_NO":"999","BSTAR":"0.00051097000000","MEAN_MOTION_DOT":"0.00007858","MEAN_MOTION_DDOT":"0.0000000000000","COUNTRY_CODE":"US","CENTER_NAME":"EARTH","FILE":"3652635","OBJECT_NAME":"STARLINK-3548","OBJECT_ID":"2022-022N","MEAN_ELEMENT_THEORY":"SGP4","REF_FRAME":"TEME","TIME_SYSTEM":"UTC","APOAPSIS":"541.085","NORAD_CAT_ID":"51864","PERIAPSIS":"538.288","TLE_LINE1":"1 51864U 22022N   22316.66299528  .00007858  00000-0  51097-3 0  9996","PERIOD":"95.436","SEMIMAJOR_AXIS":"6917.822","CLASSIFICATION_TYPE":"U","ARG_OF_PERICENTER":"42.4536","RA_OF_ASC_NODE":"54.6123","DECAY_DATE":null,"EPOCH":"2022-11-12T15:54:42.792192","MEAN_MOTION":"15.08859247","EPHEMERIS_TYPE":"0","REV_AT_EPOCH":"4003","TLE_LINE2":"2 51864  53.2179  54.6123 0002021  42.4536 317.6612 15.08859247 40035","MEAN_ANOMALY":"317.6612","RCS_SIZE":"LARGE","ECCENTRICITY":"0.00020210","SITE":"AFETR","GP_ID":"217588709","LAUNCH_DATE":"2022-03-03"},{"COUNTRY_CODE":"US","CENTER_NAME":"EARTH","MEAN_MOTION_DDOT":"0.0000000000000","MEAN_MOTION_DOT":"0.00015210","OBJECT_ID":"2022-022P","OBJECT_NAME":"STARLINK-3503","FILE":"3652635","INCLINATION":"53.2170","OBJECT_TYPE":"PAYLOAD","BSTAR":"0.00097152000000","ELEMENT_SET_NO":"999","PERIOD":"95.437","SEMIMAJOR_AXIS":"6917.861","APOAPSIS":"541.353","MEAN_ELEMENT_THEORY":"SGP4","REF_FRAME":"TEME","TIME_SYSTEM":"UTC","TLE_LINE1":"1 51865U 22022P   22316.71084788  .00015210  00000-0  97152-3 0  9996","NORAD_CAT_ID":"51865","PERIAPSIS":"538.098","MEAN_MOTION":"15.08846460","EPHEMERIS_TYPE":"0","REV_AT_EPOCH":"3999","CLASSIFICATION_TYPE":"U","ARG_OF_PERICENTER":"30.8687","EPOCH":"2022-11-12T17:03:37.256832","DECAY_DATE":null,"RA_OF_ASC_NODE":"54.4022","ECCENTRICITY":"0.00023530","SITE":"AFETR","LAUNCH_DATE":"2022-03-03","GP_ID":"217587967","MEAN_ANOMALY":"329.2443","TLE_LINE2":"2 51865  53.2170  54.4022 0002353  30.8687 329.2443 15.08846460 39996","RCS_SIZE":"LARGE"},{"CENTER_NAME":"EARTH","COUNTRY_CODE":"US","MEAN_MOTION_DDOT":"0.0000000000000","MEAN_MOTION_DOT":"0.00002245","OBJECT_NAME":"STARLINK-3553","OBJECT_ID":"2022-022Q","FILE":"3652635","ELEMENT_SET_NO":"999","OBJECT_TYPE":"PAYLOAD","BSTAR":"0.00015907000000","INCLINATION":"53.2183","SEMIMAJOR_AXIS":"6917.852","PERIOD":"95.437","APOAPSIS":"541.257","TIME_SYSTEM":"UTC","MEAN_ELEMENT_THEORY":"SGP4","REF_FRAME":"TEME","TLE_LINE1":"1 51866U 22022Q   22316.78811238  .00002245  00000-0  15907-3 0  9994","PERIAPSIS":"538.178","NORAD_CAT_ID":"51866","MEAN_MOTION":"15.08849143","REV_AT_EPOCH":"4000","EPHEMERIS_TYPE":"0","ARG_OF_PERICENTER":"34.3718","CLASSIFICATION_TYPE":"U","EPOCH":"2022-11-12T18:54:52.909632","DECAY_DATE":null,"RA_OF_ASC_NODE":"54.0399","SITE":"AFETR","ECCENTRICITY":"0.00022250","GP_ID":"217588217","LAUNCH_DATE":"2022-03-03","MEAN_ANOMALY":"325.7418","TLE_LINE2":"2 51866  53.2183  54.0399 0002225  34.3718 325.7418 15.08849143 40004","RCS_SIZE":"LARGE"},{"PERIAPSIS":"538.526","NORAD_CAT_ID":"51867","TLE_LINE1":"1 51867U 22022R   22316.70716706  .00002240  00000-0  15888-3 0  9994","TIME_SYSTEM":"UTC","REF_FRAME":"TEME","MEAN_ELEMENT_THEORY":"SGP4","APOAPSIS":"541.056","SEMIMAJOR_AXIS":"6917.926","PERIOD":"95.438","ELEMENT_SET_NO":"999","OBJECT_TYPE":"PAYLOAD","BSTAR":"0.00015888000000","INCLINATION":"53.2174","FILE":"3652635","OBJECT_ID":"2022-022R","OBJECT_NAME":"STARLINK-3590","MEAN_MOTION_DDOT":"0.0000000000000","MEAN_MOTION_DOT":"0.00002240","CENTER_NAME":"EARTH","COUNTRY_CODE":"US","RCS_SIZE":"LARGE","TLE_LINE2":"2 51867  53.2174  54.4190 0001829  53.3379 306.7781 15.08825134 39993","MEAN_ANOMALY":"306.7781","GP_ID":"217588969","LAUNCH_DATE":"2022-03-03","SITE":"AFETR","ECCENTRICITY":"0.00018290","RA_OF_ASC_NODE":"54.4190","EPOCH":"2022-11-12T16:58:19.233984","DECAY_DATE":null,"ARG_OF_PERICENTER":"53.3379","CLASSIFICATION_TYPE":"U","REV_AT_EPOCH":"3999","EPHEMERIS_TYPE":"0","MEAN_MOTION":"15.08825134"},{"PERIAPSIS":"538.483","NORAD_CAT_ID":"51868","TLE_LINE1":"1 51868U 22022S   22316.64828144  .00002974  00000-0  20488-3 0  9994","TIME_SYSTEM":"UTC","MEAN_ELEMENT_THEORY":"SGP4","REF_FRAME":"TEME","APOAPSIS":"541.047","SEMIMAJOR_AXIS":"6917.900","PERIOD":"95.438","BSTAR":"0.00020488000000","OBJECT_TYPE":"PAYLOAD","ELEMENT_SET_NO":"999","INCLINATION":"53.2174","FILE":"3652635","OBJECT_ID":"2022-022S","OBJECT_NAME":"STARLINK-3578","MEAN_MOTION_DOT":"0.00002974","MEAN_MOTION_DDOT":"0.0000000000000","CENTER_NAME":"EARTH","COUNTRY_CODE":"US","RCS_SIZE":"LARGE","TLE_LINE2":"2 51868  53.2174  54.6805 0001853  44.8612 315.2530 15.08833554 39982","MEAN_ANOMALY":"315.2530","GP_ID":"217589210","LAUNCH_DATE":"2022-03-03","SITE":"AFETR","ECCENTRICITY":"0.00018530","RA_OF_ASC_NODE":"54.6805","DECAY_DATE":null,"EPOCH":"2022-11-12T15:33:31.516416","ARG_OF_PERICENTER":"44.8612","CLASSIFICATION_TYPE":"U","REV_AT_EPOCH":"3998","EPHEMERIS_TYPE":"0","MEAN_MOTION":"15.08833554"},{"MEAN_MOTION":"15.08867575","EPHEMERIS_TYPE":"0","REV_AT_EPOCH":"4000","CLASSIFICATION_TYPE":"U","ARG_OF_PERICENTER":"31.0808","RA_OF_ASC_NODE":"54.1771","DECAY_DATE":null,"EPOCH":"2022-11-12T18:17:47.844384","ECCENTRICITY":"0.00021690","SITE":"AFETR","GP_ID":"217587467","LAUNCH_DATE":"2022-03-03","TLE_LINE2":"2 51869  53.2179  54.1771 0002169  31.0808 329.0312 15.08867575 40007","MEAN_ANOMALY":"329.0312","RCS_SIZE":"LARGE","MEAN_MOTION_DOT":"0.00008052","MEAN_MOTION_DDOT":"0.0000000000000","COUNTRY_CODE":"US","CENTER_NAME":"EARTH","FILE":"3652635","OBJECT_NAME":"STARLINK-3588","OBJECT_ID":"2022-022T","INCLINATION":"53.2179","ELEMENT_SET_NO":"999","OBJECT_TYPE":"PAYLOAD","BSTAR":"0.00052300000000","PERIOD":"95.436","SEMIMAJOR_AXIS":"6917.796","MEAN_ELEMENT_THEORY":"SGP4","REF_FRAME":"TEME","TIME_SYSTEM":"UTC","APOAPSIS":"541.162","NORAD_CAT_ID":"51869","PERIAPSIS":"538.161","TLE_LINE1":"1 51869U 22022T   22316.76235931  .00008052  00000-0  52300-3 0  9995"}];
